TRANSPORTER-16 OBJECT A
1 68416U 26067A   26110.85027999  .00005809  00000+0  28308-3 0  9990
2 68416  97.4511  70.1962 0004163 102.2527 257.9174 15.18716374  3249
JACK-002
1 68417U 26067B   26110.85111499  .00005429  00000+0  26526-3 0  9998
2 68417  97.4532  70.2002 0004011 104.3660 255.8020 15.18650506  3243
OPTISAT
1 68418U 26067C   26111.11575418  .00003944  00000+0  19425-3 0  9994
2 68418  97.4550  70.4639 0004006 114.7465 245.4186 15.18540897  3287
TRANSPORTER-16 OBJECT D
1 68419U 26067D   26110.65432402  .00004696  00000+0  23061-3 0  9994
2 68419  97.4507  69.9980 0003564  97.2080 262.9560 15.18549113  3211
ERMIS-2
1 68420U 26067E   26110.85147036  .00008188  00000+0  39798-3 0  9998
2 68420  97.4452  70.1805 0003645  87.6051 272.5600 15.18681472  3243
TRANSPORTER-16 OBJECT F
1 68421U 26067F   26110.85445293  .00003522  00000+0  17470-3 0  9995
2 68421  97.4482  70.1834 0002974  89.7674 270.3901 15.18368603  3245
TRANSPORTER-16 OBJECT G
1 68422U 26067G   26110.85487611  .00005941  00000+0  29245-3 0  9996
2 68422  97.4446  70.1737 0002874  87.2901 272.8662 15.18358301  3248
TRANSPORTER-16 OBJECT H
1 68423U 26067H   26110.85564848  .00004278  00000+0  21190-3 0  9998
2 68423  97.4469  70.1783 0002633  97.3922 262.7611 15.18297453  3245
SPACEVAN-002
1 68424U 26067J   26110.86302808  .00004906  00000+0  24608-3 0  9991
2 68424  97.4488  70.1731 0000814 166.9751 193.1504 15.17784760  3241
ERMIS-3
1 68425U 26067K   26110.85684202  .00004050  00000+0  20128-3 0  9995
2 68425  97.4554  70.1989 0002648 125.9600 234.1880 15.18212500  3248
TRANSPORTER-16 OBJECT L
1 68426U 26067L   26110.85474411  .00009204  00000+0  44953-3 0  9993
2 68426  97.4513  70.1917 0002857 129.6223 230.5264 15.18477518  3247
TRANSPORTER-16 OBJECT M
1 68427U 26067M   26110.78973185  .00007207  00000+0  35387-3 0  9990
2 68427  97.4515  70.1258 0002710 129.2818 230.8657 15.18369954  3234
OUT OF THE BOX (OOTB)
1 68428U 26067N   26110.85874197  .00003297  00000+0  16519-3 0  9993
2 68428  97.4536  70.1924 0002177 138.4094 221.7306 15.18061758  3245
TRANSPORTER-16 OBJECT P
1 68429U 26067P   26110.85946938  .00010077  00000+0  49645-3 0  9997
2 68429  97.4482  70.1746 0001842 172.4965 187.6297 15.18151628  3246
2026-066C
1 68414U 26066C   26111.88793196  .00000769  00000+0  78904-4 0  9998
2 68414  84.9631 263.5570 0028254  90.5957 269.8504 14.88521078  3359
2026-066D
1 68415U 26066D   26111.88902139  .00001314  00000+0  13755-3 0  9997
2 68415  84.9630 263.5579 0027623  90.4133 270.0255 14.88442260  3354
