[{"OBJECT_NAME":"2026-066C","OBJECT_ID":"2026-066C","EPOCH":"2026-04-21T21:18:37.321344","MEAN_MOTION":14.88521078,"ECCENTRICITY":0.0028254,"INCLINATION":84.9631,"RA_OF_ASC_NODE":263.557,"ARG_OF_PERICENTER":90.5957,"MEAN_ANOMALY":269.8504,"EPHEMERIS_TYPE":0,"CLASSIFICATION_TYPE":"U","NORAD_CAT_ID":68414,"ELEMENT_SET_NO":999,"REV_AT_EPOCH":335,"BSTAR":7.8904e-5,"MEAN_MOTION_DOT":7.69e-6,"MEAN_MOTION_DDOT":0},{"OBJECT_NAME":"2026-066D","OBJECT_ID":"2026-066D","EPOCH":"2026-04-21T21:20:11.448096","MEAN_MOTION":14.8844226,"ECCENTRICITY":0.0027623,"INCLINATION":84.963,"RA_OF_ASC_NODE":263.5579,"ARG_OF_PERICENTER":90.4133,"MEAN_ANOMALY":270.0255,"EPHEMERIS_TYPE":0,"CLASSIFICATION_TYPE":"U","NORAD_CAT_ID":68415,"ELEMENT_SET_NO":999,"REV_AT_EPOCH":335,"BSTAR":0.00013755,"MEAN_MOTION_DOT":1.314e-5,"MEAN_MOTION_DDOT":0},{"OBJECT_NAME":"TRANSPORTER-16 OBJECT A","OBJECT_ID":"2026-067A","EPOCH":"2026-04-20T20:24:24.191136","MEAN_MOTION":15.18716374,"ECCENTRICITY":0.00041632,"INCLINATION":97.4511,"RA_OF_ASC_NODE":70.1962,"ARG_OF_PERICENTER":102.2527,"MEAN_ANOMALY":257.9174,"EPHEMERIS_TYPE":0,"CLASSIFICATION_TYPE":"U","NORAD_CAT_ID":68416,"ELEMENT_SET_NO":999,"REV_AT_EPOCH":324,"BSTAR":0.00028308273,"MEAN_MOTION_DOT":5.809e-5,"MEAN_MOTION_DDOT":0},{"OBJECT_NAME":"JACK-002","OBJECT_ID":"2026-067B","EPOCH":"2026-04-20T20:25:36.335136","MEAN_MOTION":15.18650506,"ECCENTRICITY":0.00040115,"INCLINATION":97.4532,"RA_OF_ASC_NODE":70.2002,"ARG_OF_PERICENTER":104.366,"MEAN_ANOMALY":255.802,"EPHEMERIS_TYPE":0,"CLASSIFICATION_TYPE":"U","NORAD_CAT_ID":68417,"ELEMENT_SET_NO":999,"REV_AT_EPOCH":324,"BSTAR":0.0002652585,"MEAN_MOTION_DOT":5.429e-5,"MEAN_MOTION_DDOT":0},{"OBJECT_NAME":"OPTISAT","OBJECT_ID":"2026-067C","EPOCH":"2026-04-21T02:46:41.161152","MEAN_MOTION":15.18540897,"ECCENTRICITY":0.00040066,"INCLINATION":97.455,"RA_OF_ASC_NODE":70.4639,"ARG_OF_PERICENTER":114.7465,"MEAN_ANOMALY":245.4186,"EPHEMERIS_TYPE":0,"CLASSIFICATION_TYPE":"U","NORAD_CAT_ID":68418,"ELEMENT_SET_NO":999,"REV_AT_EPOCH":328,"BSTAR":0.00019424905,"MEAN_MOTION_DOT":3.944e-5,"MEAN_MOTION_DDOT":0},{"OBJECT_NAME":"TRANSPORTER-16 OBJECT D","OBJECT_ID":"2026-067D","EPOCH":"2026-04-20T15:42:13.595328","MEAN_MOTION":15.18549113,"ECCENTRICITY":0.00035647,"INCLINATION":97.4507,"RA_OF_ASC_NODE":69.998,"ARG_OF_PERICENTER":97.208,"MEAN_ANOMALY":262.956,"EPHEMERIS_TYPE":0,"CLASSIFICATION_TYPE":"U","NORAD_CAT_ID":68419,"ELEMENT_SET_NO":999,"REV_AT_EPOCH":321,"BSTAR":0.00023060983,"MEAN_MOTION_DOT":4.696e-5,"MEAN_MOTION_DDOT":0},{"OBJECT_NAME":"ERMIS-2","OBJECT_ID":"2026-067E","EPOCH":"2026-04-20T20:26:07.039104","MEAN_MOTION":15.18681472,"ECCENTRICITY":0.00036455,"INCLINATION":97.4452,"RA_OF_ASC_NODE":70.1805,"ARG_OF_PERICENTER":87.6051,"MEAN_ANOMALY":272.56,"EPHEMERIS_TYPE":0,"CLASSIFICATION_TYPE":"U","NORAD_CAT_ID":68420,"ELEMENT_SET_NO":999,"REV_AT_EPOCH":324,"BSTAR":0.00039797756,"MEAN_MOTION_DOT":8.188e-5,"MEAN_MOTION_DDOT":0},{"OBJECT_NAME":"TRANSPORTER-16 OBJECT F","OBJECT_ID":"2026-067F","EPOCH":"2026-04-20T20:30:24.733152","MEAN_MOTION":15.18368603,"ECCENTRICITY":0.00029744,"INCLINATION":97.4482,"RA_OF_ASC_NODE":70.1834,"ARG_OF_PERICENTER":89.7674,"MEAN_ANOMALY":270.3901,"EPHEMERIS_TYPE":0,"CLASSIFICATION_TYPE":"U","NORAD_CAT_ID":68421,"ELEMENT_SET_NO":999,"REV_AT_EPOCH":324,"BSTAR":0.00017469776,"MEAN_MOTION_DOT":3.522e-5,"MEAN_MOTION_DDOT":0},{"OBJECT_NAME":"TRANSPORTER-16 OBJECT G","OBJECT_ID":"2026-067G","EPOCH":"2026-04-20T20:31:01.295904","MEAN_MOTION":15.18358301,"ECCENTRICITY":0.00028747,"INCLINATION":97.4446,"RA_OF_ASC_NODE":70.1737,"ARG_OF_PERICENTER":87.2901,"MEAN_ANOMALY":272.8662,"EPHEMERIS_TYPE":0,"CLASSIFICATION_TYPE":"U","NORAD_CAT_ID":68422,"ELEMENT_SET_NO":999,"REV_AT_EPOCH":324,"BSTAR":0.00029244651,"MEAN_MOTION_DOT":5.941e-5,"MEAN_MOTION_DDOT":0},{"OBJECT_NAME":"TRANSPORTER-16 OBJECT H","OBJECT_ID":"2026-067H","EPOCH":"2026-04-20T20:32:08.028672","MEAN_MOTION":15.18297453,"ECCENTRICITY":0.00026332,"INCLINATION":97.4469,"RA_OF_ASC_NODE":70.1783,"ARG_OF_PERICENTER":97.3922,"MEAN_ANOMALY":262.7611,"EPHEMERIS_TYPE":0,"CLASSIFICATION_TYPE":"U","NORAD_CAT_ID":68423,"ELEMENT_SET_NO":999,"REV_AT_EPOCH":324,"BSTAR":0.00021190435,"MEAN_MOTION_DOT":4.278e-5,"MEAN_MOTION_DDOT":0},{"OBJECT_NAME":"SPACEVAN-002","OBJECT_ID":"2026-067J","EPOCH":"2026-04-20T20:42:45.626112","MEAN_MOTION":15.1778476,"ECCENTRICITY":8.145e-5,"INCLINATION":97.4488,"RA_OF_ASC_NODE":70.1731,"ARG_OF_PERICENTER":166.9751,"MEAN_ANOMALY":193.1504,"EPHEMERIS_TYPE":0,"CLASSIFICATION_TYPE":"U","NORAD_CAT_ID":68424,"ELEMENT_SET_NO":999,"REV_AT_EPOCH":324,"BSTAR":0.00024608242,"MEAN_MOTION_DOT":4.906e-5,"MEAN_MOTION_DDOT":0},{"OBJECT_NAME":"ERMIS-3","OBJECT_ID":"2026-067K","EPOCH":"2026-04-20T20:33:51.150528","MEAN_MOTION":15.182125,"ECCENTRICITY":0.0002648,"INCLINATION":97.4554,"RA_OF_ASC_NODE":70.1989,"ARG_OF_PERICENTER":125.96,"MEAN_ANOMALY":234.188,"EPHEMERIS_TYPE":0,"CLASSIFICATION_TYPE":"U","NORAD_CAT_ID":68425,"ELEMENT_SET_NO":999,"REV_AT_EPOCH":324,"BSTAR":0.0002012792,"MEAN_MOTION_DOT":4.05e-5,"MEAN_MOTION_DDOT":0},{"OBJECT_NAME":"TRANSPORTER-16 OBJECT L","OBJECT_ID":"2026-067L","EPOCH":"2026-04-20T20:30:49.891104","MEAN_MOTION":15.18477518,"ECCENTRICITY":0.00028577,"INCLINATION":97.4513,"RA_OF_ASC_NODE":70.1917,"ARG_OF_PERICENTER":129.6223,"MEAN_ANOMALY":230.5264,"EPHEMERIS_TYPE":0,"CLASSIFICATION_TYPE":"U","NORAD_CAT_ID":68426,"ELEMENT_SET_NO":999,"REV_AT_EPOCH":324,"BSTAR":0.00044953101,"MEAN_MOTION_DOT":9.204e-5,"MEAN_MOTION_DDOT":0},{"OBJECT_NAME":"TRANSPORTER-16 OBJECT M","OBJECT_ID":"2026-067M","EPOCH":"2026-04-20T18:57:12.831840","MEAN_MOTION":15.18369954,"ECCENTRICITY":0.00027107,"INCLINATION":97.4515,"RA_OF_ASC_NODE":70.1258,"ARG_OF_PERICENTER":129.2818,"MEAN_ANOMALY":230.8657,"EPHEMERIS_TYPE":0,"CLASSIFICATION_TYPE":"U","NORAD_CAT_ID":68427,"ELEMENT_SET_NO":999,"REV_AT_EPOCH":323,"BSTAR":0.00035386664,"MEAN_MOTION_DOT":7.207e-5,"MEAN_MOTION_DDOT":0},{"OBJECT_NAME":"OUT OF THE BOX (OOTB)","OBJECT_ID":"2026-067N","EPOCH":"2026-04-20T20:36:35.306208","MEAN_MOTION":15.18061758,"ECCENTRICITY":0.00021773,"INCLINATION":97.4536,"RA_OF_ASC_NODE":70.1924,"ARG_OF_PERICENTER":138.4094,"MEAN_ANOMALY":221.7306,"EPHEMERIS_TYPE":0,"CLASSIFICATION_TYPE":"U","NORAD_CAT_ID":68428,"ELEMENT_SET_NO":999,"REV_AT_EPOCH":324,"BSTAR":0.00016519103,"MEAN_MOTION_DOT":3.297e-5,"MEAN_MOTION_DDOT":0},{"OBJECT_NAME":"TRANSPORTER-16 OBJECT P","OBJECT_ID":"2026-067P","EPOCH":"2026-04-20T20:37:38.154432","MEAN_MOTION":15.18151628,"ECCENTRICITY":0.00018429,"INCLINATION":97.4482,"RA_OF_ASC_NODE":70.1746,"ARG_OF_PERICENTER":172.4965,"MEAN_ANOMALY":187.6297,"EPHEMERIS_TYPE":0,"CLASSIFICATION_TYPE":"U","NORAD_CAT_ID":68429,"ELEMENT_SET_NO":999,"REV_AT_EPOCH":324,"BSTAR":0.00049644767,"MEAN_MOTION_DOT":0.00010077,"MEAN_MOTION_DDOT":0}]
